{
  "name": "SATGUS",
  "line1": "1 62713U 25009DJ  25362.49098088  .00010821  00000+0  90850-3 0  9995",
  "line2": "2 62713  97.7189  80.4531 0001378   4.7892 355.3343 14.98508955 51974",
  "fetched_at": "2025-12-29T00:21:35.381041+00:00"
}